CCSDS_OMM_VERS,COMMENT,CREATION_DATE,ORIGINATOR,OBJECT_NAME,OBJECT_ID,CENTER_NAME,REF_FRAME,TIME_SYSTEM,MEAN_ELEMENT_THEORY,EPOCH,MEAN_MOTION,ECCENTRICITY,INCLINATION,RA_OF_ASC_NODE,ARG_OF_PERICENTER,MEAN_ANOMALY,EPHEMERIS_TYPE,CLASSIFICATION_TYPE,NORAD_CAT_ID,ELEMENT_SET_NO,REV_AT_EPOCH,BSTAR,MEAN_MOTION_DOT,MEAN_MOTION_DDOT,SEMIMAJOR_AXIS,PERIOD,APOAPSIS,PERIAPSIS,OBJECT_TYPE,RCS_SIZE,COUNTRY_CODE,LAUNCH_DATE,SITE,DECAY_DATE,FILE,GP_ID,TLE_LINE0,TLE_LINE1,TLE_LINE2
"3.0","GENERATED VIA SPACE-TRACK.ORG API","2026-03-25T04:32:27","18 SPCS","DMSP 5D-2 F11 DEB","1991-082BY","EARTH","TEME","UTC","SGP4","2026-03-24T21:28:53.532192","14.54227091","0.00507392","98.6930","230.4969","70.5015","290.1651","0","U","29077","999","11403","0.00296033310000","0.00012727","0.0000000000000","7090.013","99.022","747.852","675.904","DEBRIS","SMALL","US","1991-11-28","AFWTR","","5096755","316974691","0 DMSP 5D-2 F11 DEB","1 29077U 91082BY  26083.89506403  .00012727  00000-0  29603-2 0  9990","2 29077  98.6930 230.4969 0050739  70.5015 290.1651 14.54227091114035"
"3.0","GENERATED VIA SPACE-TRACK.ORG API","2026-03-21T17:23:35","18 SPCS","DMSP 5D-2 F11 DEB","1991-082BZ","EARTH","TEME","UTC","SGP4","2026-03-21T12:09:14.832288","14.47697697","0.00157958","98.6721","170.1598","243.0983","116.8595","0","U","29078","999","60812","0.00199801720000","0.00007345","0.0000000000000","7111.315","99.468","744.413","721.947","DEBRIS","SMALL","US","1991-11-28","AFWTR","","5094800","316708681","0 DMSP 5D-2 F11 DEB","1 29078U 91082BZ  26080.50642167  .00007345  00000-0  19980-2 0  9991","2 29078  98.6721 170.1598 0015796 243.0983 116.8595 14.47697697608121"
"3.0","GENERATED VIA SPACE-TRACK.ORG API","2026-03-25T17:29:05","18 SPCS","CZ-4B DEB","2006-015D","EARTH","TEME","UTC","SGP4","2026-03-25T06:39:21.286080","14.74826768","0.01187701","97.7838","96.8861","30.9983","329.8165","0","U","29537","999","4948","0.00101105010000","0.00007545","0.0000000000000","7023.838","97.639","729.125","562.281","DEBRIS","SMALL","PRC","2006-04-26","TSC","","5096884","317008475","0 CZ-4B DEB","1 29537U 06015D   26084.27732970  .00007545  00000-0  10111-2 0  9992","2 29537  97.7838  96.8861 0118770  30.9983 329.8165 14.74826768 49486"
"3.0","GENERATED VIA SPACE-TRACK.ORG API","2026-03-25T17:29:05","18 SPCS","FENGYUN 1C DEB","1999-025CH","EARTH","TEME","UTC","SGP4","2026-03-25T11:54:31.455360","14.59916946","0.00410194","99.0369","99.0560","109.1770","51.7406","0","U","29791","999","344","0.00124788420000","0.00005996","0.0000000000000","7071.579","98.636","722.451","664.437","DEBRIS","SMALL","PRC","1999-05-10","TSC","","5096884","317009007","0 FENGYUN 1C DEB","1 29791U 99025CH  26084.49619740  .00005996  00000-0  12479-2 0  9997","2 29791  99.0369  99.0560 0041019 109.1770  51.7406 14.59916946  3443"
"3.0","GENERATED VIA SPACE-TRACK.ORG API","2026-03-25T04:32:27","18 SPCS","FENGYUN 1C DEB","1999-025CU","EARTH","TEME","UTC","SGP4","2026-03-24T18:43:58.689696","14.66010026","0.00333390","98.6187","202.6140","25.1565","136.2714","0","U","29802","999","99966","0.00207954220000","0.00011453","0.0000000000000","7051.971","98.226","697.347","650.326","DEBRIS","SMALL","PRC","1999-05-10","TSC","","5096755","316975318","0 FENGYUN 1C DEB","1 29802U 99025CU  26083.78054039  .00011453  00000-0  20795-2 0  9990","2 29802  98.6187 202.6140 0033339  25.1565 136.2714 14.66010026999661"
"3.0","GENERATED VIA SPACE-TRACK.ORG API","2026-03-25T17:29:05","18 SPCS","FENGYUN 1C DEB","1999-025HC","EARTH","TEME","UTC","SGP4","2026-03-25T01:57:28.395360","14.51553678","0.00369106","98.7026","195.8899","196.4689","163.5309","0","U","29906","999","99641","0.00189296540000","0.00007600","0.0000000000000","7098.716","99.204","746.782","694.379","DEBRIS","SMALL","PRC","1999-05-10","TSC","","5096884","317009048","0 FENGYUN 1C DEB","1 29906U 99025HC  26084.08157865  .00007600  00000-0  18930-2 0  9997","2 29906  98.7026 195.8899 0036911 196.4689 163.5309 14.51553678996413"
"3.0","GENERATED VIA SPACE-TRACK.ORG API","2026-03-25T17:29:05","18 SPCS","FENGYUN 1C DEB","1999-025HF","EARTH","TEME","UTC","SGP4","2026-03-25T13:30:46.509120","14.57522165","0.00375573","98.6313","196.9519","64.0784","313.7290","0","U","29909","999","99902","0.00188573190000","0.00008615","0.0000000000000","7079.323","98.798","727.776","674.600","DEBRIS","SMALL","PRC","1999-05-10","TSC","","5096884","317009049","0 FENGYUN 1C DEB","1 29909U 99025HF  26084.56303830  .00008615  00000-0  18857-2 0  9993","2 29909  98.6313 196.9519 0037557  64.0784 313.7290 14.57522165999029"
"3.0","GENERATED VIA SPACE-TRACK.ORG API","2026-03-25T17:29:05","18 SPCS","FENGYUN 1C DEB","1999-025HZ","EARTH","TEME","UTC","SGP4","2026-03-25T14:27:07.793856","14.78921926","0.00161662","99.0721","126.2944","243.5918","268.8708","0","U","29927","999","164","0.00206094850000","0.00015197","0.0000000000000","7010.866","97.368","644.065","621.397","DEBRIS","SMALL","PRC","1999-05-10","TSC","","5096884","317008556","0 FENGYUN 1C DEB","1 29927U 99025HZ  26084.60217354  .00015197  00000-0  20609-2 0  9994","2 29927  99.0721 126.2944 0016166 243.5918 268.8708 14.78921926  1648"
"3.0","GENERATED VIA SPACE-TRACK.ORG API","2026-03-25T17:29:05","18 SPCS","FENGYUN 1C DEB","1999-025JF","EARTH","TEME","UTC","SGP4","2026-03-25T13:47:54.671712","14.70278486","0.00030123","98.7440","199.7926","38.9181","337.7265","0","U","29933","999","13","0.00311782030000","0.00018810","0.0000000000000","7038.316","97.941","662.301","658.061","DEBRIS","SMALL","PRC","1999-05-10","TSC","","5096884","317008559","0 FENGYUN 1C DEB","1 29933U 99025JF  26084.57493833  .00018810  00000-0  31178-2 0  9993","2 29933  98.7440 199.7926 0003012  38.9181 337.7265 14.70278486   133"
"3.0","GENERATED VIA SPACE-TRACK.ORG API","2026-03-25T17:29:05","18 SPCS","FENGYUN 1C DEB","1999-025JG","EARTH","TEME","UTC","SGP4","2026-03-25T10:29:29.804064","14.64826219","0.00986682","98.8854","144.5284","296.6168","62.4951","0","U","29934","999","1272","0.00049878709000","0.00002797","0.0000000000000","7055.770","98.305","747.253","608.017","DEBRIS","MEDIUM","PRC","1999-05-10","TSC","","5096884","317009060","0 FENGYUN 1C DEB","1 29934U 99025JG  26084.43715051  .00002797  00000-0  49879-3 0  9993","2 29934  98.8854 144.5284 0098668 296.6168  62.4951 14.64826219 12726"
"3.0","GENERATED VIA SPACE-TRACK.ORG API","2026-03-25T17:29:05","18 SPCS","FENGYUN 1C DEB","1999-025KF","EARTH","TEME","UTC","SGP4","2026-03-25T08:32:19.950144","14.55130554","0.00368536","98.9193","222.8500","221.4636","192.9002","0","U","29957","999","98982","0.00344659830000","0.00014998","0.0000000000000","7087.078","98.960","735.061","682.824","DEBRIS","SMALL","PRC","1999-05-10","TSC","","5096884","317009070","0 FENGYUN 1C DEB","1 29957U 99025KF  26084.35578646  .00014998  00000-0  34466-2 0  9997","2 29957  98.9193 222.8500 0036854 221.4636 192.9002 14.55130554989824"
"3.0","GENERATED VIA SPACE-TRACK.ORG API","2026-03-25T17:29:05","18 SPCS","FENGYUN 1C DEB","1999-025KW","EARTH","TEME","UTC","SGP4","2026-03-25T00:55:56.866368","14.67847706","0.00637299","98.9148","110.0899","56.4391","357.6799","0","U","29972","999","984","0.00092695925000","0.00005402","0.0000000000000","7046.084","98.103","712.854","623.045","DEBRIS","SMALL","PRC","1999-05-10","TSC","","5096884","317008577","0 FENGYUN 1C DEB","1 29972U 99025KW  26084.03885262  .00005402  00000-0  92696-3 0  9994","2 29972  98.9148 110.0899 0063730  56.4391 357.6799 14.67847706  9842"
"3.0","GENERATED VIA SPACE-TRACK.ORG API","2026-03-25T04:32:27","18 SPCS","FENGYUN 1C DEB","1999-025MH","EARTH","TEME","UTC","SGP4","2026-03-24T21:14:37.576896","14.69371101","0.00361819","99.3779","59.9237","242.3194","147.4559","0","U","30008","999","559","0.00180222040000","0.00010712","0.0000000000000","7041.213","98.001","688.555","637.602","DEBRIS","SMALL","PRC","1999-05-10","TSC","","5096755","316975398","0 FENGYUN 1C DEB","1 30008U 99025MH  26083.88515714  .00010712  00000-0  18022-2 0  9990","2 30008  99.3779  59.9237 0036182 242.3194 147.4559 14.69371101  5594"
"3.0","GENERATED VIA SPACE-TRACK.ORG API","2026-03-25T17:29:05","18 SPCS","FENGYUN 1C DEB","1999-025MR","EARTH","TEME","UTC","SGP4","2026-03-25T08:18:00.156960","14.81691146","0.00445438","98.8973","112.3880","77.6709","43.1754","0","U","30016","999","972","0.00134931960000","0.00010759","0.0000000000000","7002.128","97.186","655.183","592.803","DEBRIS","SMALL","PRC","1999-05-10","TSC","","5096884","317008594","0 FENGYUN 1C DEB","1 30016U 99025MR  26084.34583515  .00010759  00000-0  13493-2 0  9993","2 30016  98.8973 112.3880 0044544  77.6709  43.1754 14.81691146  9729"
"3.0","GENERATED VIA SPACE-TRACK.ORG API","2026-03-25T17:29:05","18 SPCS","FENGYUN 1C DEB","1999-025MT","EARTH","TEME","UTC","SGP4","2026-03-25T12:49:25.555584","14.74268134","0.01138975","98.7449","180.2575","232.6503","141.1260","0","U","30018","999","1951","0.00063283087000","0.00004580","0.0000000000000","7025.612","97.676","727.497","567.458","DEBRIS","SMALL","PRC","1999-05-10","TSC","","5096884","317008595","0 FENGYUN 1C DEB","1 30018U 99025MT  26084.53432356  .00004580  00000-0  63283-3 0  9990","2 30018  98.7449 180.2575 0113897 232.6503 141.1260 14.74268134 19514"
"3.0","GENERATED VIA SPACE-TRACK.ORG API","2026-03-25T17:29:05","18 SPCS","FENGYUN 1C DEB","1999-025PY","EARTH","TEME","UTC","SGP4","2026-03-25T00:25:13.399680","14.54481800","0.00398467","98.6535","191.6178","156.4053","259.7820","0","U","30071","999","99712","0.00202919560000","0.00008693","0.0000000000000","7089.185","99.004","739.298","682.802","DEBRIS","SMALL","PRC","1999-05-10","TSC","","5096884","317008613","0 FENGYUN 1C DEB","1 30071U 99025PY  26084.01751620  .00008693  00000-0  20292-2 0  9991","2 30071  98.6535 191.6178 0039847 156.4053 259.7820 14.54481800997123"
